start=new Date('2021-12-16T00:00:00.000Z').valueOf();
sats=[{"SEMIMAJOR_AXIS":"6925.354","SITE":"AFETR","MEAN_MOTION_DDOT":"0.0000000000000","MEAN_ELEMENT_THEORY":"SGP4","ECCENTRICITY":"0.00019640","DECAY_DATE":null,"ARG_OF_PERICENTER":"55.0239","RA_OF_ASC_NODE":"312.3246","TIME_SYSTEM":"UTC","PERIAPSIS":"545.859","APOAPSIS":"548.579","MEAN_ANOMALY":"305.0934","TLE_LINE1":"1 47730U 21017J   21349.70660899  .00001674  00000-0  13127-3 0  9991","MEAN_MOTION":"15.06398321","OBJECT_ID":"2021-017J","TLE_LINE2":"2 47730  53.0556 312.3246 0001964  55.0239 305.0934 15.06398321 44798","ELEMENT_SET_NO":"999","REV_AT_EPOCH":"4479","GP_ID":"191799393","RCS_SIZE":"LARGE","OBJECT_TYPE":"PAYLOAD","LAUNCH_DATE":"2021-03-04","EPOCH":"2021-12-15T16:57:31.016736","BSTAR":"0.00013127000000","FILE":"3241542","COUNTRY_CODE":"US","CENTER_NAME":"EARTH","REF_FRAME":"TEME","EPHEMERIS_TYPE":"0","CLASSIFICATION_TYPE":"U","INCLINATION":"53.0556","OBJECT_NAME":"STARLINK-2140","NORAD_CAT_ID":"47730","PERIOD":"95.592","MEAN_MOTION_DOT":"0.00001674"},{"REV_AT_EPOCH":"4487","TLE_LINE2":"2 47731  53.0568 307.2904 0002125  52.9303 307.1880 15.06405235 44879","ELEMENT_SET_NO":"999","OBJECT_ID":"2021-017K","MEAN_ANOMALY":"307.1880","TLE_LINE1":"1 47731U 21017K   21349.71353759 -.00000212  00000-0  47019-5 0  9994","MEAN_MOTION":"15.06405235","APOAPSIS":"548.669","PERIAPSIS":"545.726","TIME_SYSTEM":"UTC","RA_OF_ASC_NODE":"307.2904","ARG_OF_PERICENTER":"52.9303","MEAN_ELEMENT_THEORY":"SGP4","ECCENTRICITY":"0.00021250","DECAY_DATE":null,"MEAN_MOTION_DDOT":"0.0000000000000","SITE":"AFETR","SEMIMAJOR_AXIS":"6925.333","OBJECT_NAME":"STARLINK-2141","PERIOD":"95.592","NORAD_CAT_ID":"47731","MEAN_MOTION_DOT":"-0.00000212","INCLINATION":"53.0568","CLASSIFICATION_TYPE":"U","EPHEMERIS_TYPE":"0","REF_FRAME":"TEME","CENTER_NAME":"EARTH","FILE":"3241542","COUNTRY_CODE":"US","BSTAR":"0.00000470190000","LAUNCH_DATE":"2021-03-04","EPOCH":"2021-12-15T17:07:29.647776","RCS_SIZE":"LARGE","OBJECT_TYPE":"PAYLOAD","GP_ID":"191797642"},{"REV_AT_EPOCH":"4609","OBJECT_ID":"2021-017L","TLE_LINE2":"2 47732  53.0546 221.3047 0003106  75.6459 284.4875 15.06393167 46091","ELEMENT_SET_NO":"999","APOAPSIS":"549.386","MEAN_MOTION":"15.06393167","TLE_LINE1":"1 47732U 21017L   21349.92869248  .00000933  00000-0  81559-4 0  9998","MEAN_ANOMALY":"284.4875","RA_OF_ASC_NODE":"221.3047","TIME_SYSTEM":"UTC","PERIAPSIS":"545.083","ARG_OF_PERICENTER":"75.6459","MEAN_MOTION_DDOT":"0.0000000000000","ECCENTRICITY":"0.00031060","DECAY_DATE":null,"MEAN_ELEMENT_THEORY":"SGP4","SITE":"AFETR","SEMIMAJOR_AXIS":"6925.370","INCLINATION":"53.0546","PERIOD":"95.593","NORAD_CAT_ID":"47732","MEAN_MOTION_DOT":"0.00000933","OBJECT_NAME":"STARLINK-2142","EPHEMERIS_TYPE":"0","CLASSIFICATION_TYPE":"U","REF_FRAME":"TEME","CENTER_NAME":"EARTH","EPOCH":"2021-12-15T22:17:19.030272","LAUNCH_DATE":"2021-03-04","COUNTRY_CODE":"US","FILE":"3241542","BSTAR":"0.00008155900000","OBJECT_TYPE":"PAYLOAD","RCS_SIZE":"LARGE","GP_ID":"191797892"},{"OBJECT_TYPE":"PAYLOAD","RCS_SIZE":"LARGE","FILE":"3241542","COUNTRY_CODE":"US","BSTAR":"0.00000565410000","EPOCH":"2021-12-15T15:14:43.100448","LAUNCH_DATE":"2021-03-04","GP_ID":"191799143","CLASSIFICATION_TYPE":"U","EPHEMERIS_TYPE":"0","PERIOD":"95.593","MEAN_MOTION_DOT":"-0.00000197","NORAD_CAT_ID":"47733","OBJECT_NAME":"STARLINK-2143","INCLINATION":"53.0445","CENTER_NAME":"EARTH","REF_FRAME":"TEME","DECAY_DATE":null,"ECCENTRICITY":"0.00019550","MEAN_ELEMENT_THEORY":"SGP4","MEAN_MOTION_DDOT":"0.0000000000000","ARG_OF_PERICENTER":"58.4561","SEMIMAJOR_AXIS":"6925.374","SITE":"AFETR","TLE_LINE2":"2 47733  53.0445 317.6725 0001955  58.4561 301.6619 15.06391637 44765","ELEMENT_SET_NO":"999","OBJECT_ID":"2021-017M","REV_AT_EPOCH":"4476","PERIAPSIS":"545.885","TIME_SYSTEM":"UTC","RA_OF_ASC_NODE":"317.6725","MEAN_MOTION":"15.06391637","TLE_LINE1":"1 47733U 21017M   21349.63522107 -.00000197  00000-0  56541-5 0  9994","MEAN_ANOMALY":"301.6619","APOAPSIS":"548.593"},{"APOAPSIS":"548.667","MEAN_ANOMALY":"305.2095","TLE_LINE1":"1 47734U 21017N   21349.58822363 -.00000041  00000-0  16171-4 0  9998","MEAN_MOTION":"15.06400876","RA_OF_ASC_NODE":"307.8512","TIME_SYSTEM":"UTC","PERIAPSIS":"545.755","REV_AT_EPOCH":"4486","OBJECT_ID":"2021-017N","TLE_LINE2":"2 47734  53.0569 307.8512 0002102  54.9091 305.2095 15.06400876 44867","ELEMENT_SET_NO":"999","SITE":"AFETR","SEMIMAJOR_AXIS":"6925.346","ARG_OF_PERICENTER":"54.9091","MEAN_MOTION_DDOT":"0.0000000000000","MEAN_ELEMENT_THEORY":"SGP4","ECCENTRICITY":"0.00021020","DECAY_DATE":null,"REF_FRAME":"TEME","CENTER_NAME":"EARTH","INCLINATION":"53.0569","OBJECT_NAME":"STARLINK-2144","MEAN_MOTION_DOT":"-0.00000041","PERIOD":"95.592","NORAD_CAT_ID":"47734","EPHEMERIS_TYPE":"0","CLASSIFICATION_TYPE":"U","GP_ID":"191798894","LAUNCH_DATE":"2021-03-04","EPOCH":"2021-12-15T14:07:02.521632","COUNTRY_CODE":"US","FILE":"3241542","BSTAR":"0.00001617100000","RCS_SIZE":"LARGE","OBJECT_TYPE":"PAYLOAD"},{"GP_ID":"191798142","FILE":"3241542","COUNTRY_CODE":"US","BSTAR":"-0.00001641300000","EPOCH":"2021-12-15T22:05:22.585920","LAUNCH_DATE":"2021-03-04","OBJECT_TYPE":"PAYLOAD","RCS_SIZE":"LARGE","REF_FRAME":"TEME","CENTER_NAME":"EARTH","MEAN_MOTION_DOT":"-0.00000526","PERIOD":"95.592","NORAD_CAT_ID":"47735","OBJECT_NAME":"STARLINK-2146","INCLINATION":"53.0549","CLASSIFICATION_TYPE":"U","EPHEMERIS_TYPE":"0","SITE":"AFETR","SEMIMAJOR_AXIS":"6925.359","ARG_OF_PERICENTER":"71.3796","DECAY_DATE":null,"ECCENTRICITY":"0.00020830","MEAN_ELEMENT_THEORY":"SGP4","MEAN_MOTION_DDOT":"0.0000000000000","MEAN_MOTION":"15.06396722","MEAN_ANOMALY":"288.7419","TLE_LINE1":"1 47735U 21017P   21349.92040030 -.00000526  00000-0 -16413-4 0  9998","APOAPSIS":"548.666","PERIAPSIS":"545.781","RA_OF_ASC_NODE":"231.3391","TIME_SYSTEM":"UTC","REV_AT_EPOCH":"4594","ELEMENT_SET_NO":"999","TLE_LINE2":"2 47735  53.0549 231.3391 0002083  71.3796 288.7419 15.06396722 45944","OBJECT_ID":"2021-017P"},{"REF_FRAME":"TEME","CENTER_NAME":"EARTH","OBJECT_NAME":"STARLINK-2147","PERIOD":"95.592","MEAN_MOTION_DOT":"-0.00000537","NORAD_CAT_ID":"47736","INCLINATION":"53.0558","CLASSIFICATION_TYPE":"U","EPHEMERIS_TYPE":"0","GP_ID":"191798392","BSTAR":"-0.00001715900000","FILE":"3241542","COUNTRY_CODE":"US","LAUNCH_DATE":"2021-03-04","EPOCH":"2021-12-15T13:20:35.820960","RCS_SIZE":"LARGE","OBJECT_TYPE":"PAYLOAD","MEAN_ANOMALY":"291.3636","TLE_LINE1":"1 47736U 21017Q   21349.55597015 -.00000537  00000-0 -17159-4 0  9998","MEAN_MOTION":"15.06396801","APOAPSIS":"548.641","PERIAPSIS":"545.806","RA_OF_ASC_NODE":"297.9966","TIME_SYSTEM":"UTC","REV_AT_EPOCH":"4503","ELEMENT_SET_NO":"999","TLE_LINE2":"2 47736  53.0558 297.9966 0002047  68.7572 291.3636 15.06396801 45032","OBJECT_ID":"2021-017Q","SEMIMAJOR_AXIS":"6925.358","SITE":"AFETR","ARG_OF_PERICENTER":"68.7572","MEAN_ELEMENT_THEORY":"SGP4","ECCENTRICITY":"0.00020470","DECAY_DATE":null,"MEAN_MOTION_DDOT":"0.0000000000000"},{"TLE_LINE2":"2 47737  53.0542 231.4249 0002658  66.3553 293.7715 15.06394158 45996","ELEMENT_SET_NO":"999","OBJECT_ID":"2021-017R","REV_AT_EPOCH":"4599","PERIAPSIS":"545.391","TIME_SYSTEM":"UTC","RA_OF_ASC_NODE":"231.4249","TLE_LINE1":"1 47737U 21017R   21349.90291364 -.00000611  00000-0 -22121-4 0  9994","MEAN_ANOMALY":"293.7715","MEAN_MOTION":"15.06394158","APOAPSIS":"549.072","MEAN_ELEMENT_THEORY":"SGP4","ECCENTRICITY":"0.00026580","DECAY_DATE":null,"MEAN_MOTION_DDOT":"0.0000000000000","ARG_OF_PERICENTER":"66.3553","SEMIMAJOR_AXIS":"6925.366","SITE":"AFETR","CLASSIFICATION_TYPE":"U","EPHEMERIS_TYPE":"0","OBJECT_NAME":"STARLINK-2148","PERIOD":"95.593","NORAD_CAT_ID":"47737","MEAN_MOTION_DOT":"-0.00000611","INCLINATION":"53.0542","CENTER_NAME":"EARTH","REF_FRAME":"TEME","RCS_SIZE":"LARGE","OBJECT_TYPE":"PAYLOAD","FILE":"3241542","COUNTRY_CODE":"US","BSTAR":"-0.00002212100000","LAUNCH_DATE":"2021-03-04","EPOCH":"2021-12-15T21:40:11.738496","GP_ID":"191798644"},{"OBJECT_NAME":"STARLINK-2149","PERIOD":"95.593","NORAD_CAT_ID":"47738","MEAN_MOTION_DOT":"-0.00000351","INCLINATION":"53.0553","CLASSIFICATION_TYPE":"U","EPHEMERIS_TYPE":"0","REF_FRAME":"TEME","CENTER_NAME":"EARTH","BSTAR":"-0.00000452850000","FILE":"3241542","COUNTRY_CODE":"US","LAUNCH_DATE":"2021-03-04","EPOCH":"2021-12-15T21:39:32.696064","RCS_SIZE":"LARGE","OBJECT_TYPE":"PAYLOAD","GP_ID":"191799394","REV_AT_EPOCH":"4508","ELEMENT_SET_NO":"999","TLE_LINE2":"2 47738  53.0553 296.4460 0006859  60.3086 299.8585 15.06392052 45080","OBJECT_ID":"2021-017S","MEAN_ANOMALY":"299.8585","TLE_LINE1":"1 47738U 21017S   21349.90246176 -.00000351  00000-0 -45285-5 0  9994","MEAN_MOTION":"15.06392052","APOAPSIS":"551.988","PERIAPSIS":"542.488","TIME_SYSTEM":"UTC","RA_OF_ASC_NODE":"296.4460","ARG_OF_PERICENTER":"60.3086","MEAN_ELEMENT_THEORY":"SGP4","DECAY_DATE":null,"ECCENTRICITY":"0.00068590","MEAN_MOTION_DDOT":"0.0000000000000","SEMIMAJOR_AXIS":"6925.373","SITE":"AFETR"},{"MEAN_MOTION_DDOT":"0.0000000000000","DECAY_DATE":null,"ECCENTRICITY":"0.00019000","MEAN_ELEMENT_THEORY":"SGP4","ARG_OF_PERICENTER":"63.4976","SEMIMAJOR_AXIS":"6925.347","SITE":"AFETR","OBJECT_ID":"2021-017T","TLE_LINE2":"2 47739  53.0559 323.9092 0001900  63.4976 296.6208 15.06400553 44653","ELEMENT_SET_NO":"999","REV_AT_EPOCH":"4465","TIME_SYSTEM":"UTC","RA_OF_ASC_NODE":"323.9092","PERIAPSIS":"545.896","APOAPSIS":"548.528","MEAN_MOTION":"15.06400553","TLE_LINE1":"1 47739U 21017T   21349.35277594  .00001047  00000-0  89210-4 0  9998","MEAN_ANOMALY":"296.6208","OBJECT_TYPE":"PAYLOAD","RCS_SIZE":"LARGE","EPOCH":"2021-12-15T08:27:59.841216","LAUNCH_DATE":"2021-03-04","FILE":"3241011","COUNTRY_CODE":"US","BSTAR":"0.00008921000000","GP_ID":"191765062","EPHEMERIS_TYPE":"0","CLASSIFICATION_TYPE":"U","INCLINATION":"53.0559","PERIOD":"95.592","NORAD_CAT_ID":"47739","MEAN_MOTION_DOT":"0.00001047","OBJECT_NAME":"STARLINK-2150","CENTER_NAME":"EARTH","REF_FRAME":"TEME"}];
